NORAD_CAT_ID,OBJECT_NAME,OBJECT_TYPE,EPOCH,MEAN_MOTION,ECCENTRICITY,INCLINATION,RA_OF_ASC_NODE,ARG_OF_PERICENTER,MEAN_ANOMALY,BSTAR,MEAN_MOTION_DOT,MEAN_MOTION_DDOT,TLE_LINE0,TLE_LINE1,TLE_LINE2,SEMIMAJOR_AXIS,PERIOD,APOGEE,PERIGEE,DECAYED
56772.0,STARLINK-6275,PAYLOAD,2024-05-09 14:15:38,14.98330981,0.0002906,70.0003,251.4591,268.7501,91.3325,4.3365e-05,4.24e-06,0.0,0 STARLINK-6275,1 56772U 23078F   24130.59419165  .00000424  00000-0  43365-4 0  9992,2 56772  70.0003 251.4591 0002906 268.7501  91.3325 14.98330981 51962,6950.19,96.107,574.075,570.035,0.0
56772.0,STARLINK-6275,PAYLOAD,2024-05-09 17:27:53,14.9833489,0.0002875,70.0004,251.1224,269.5302,90.5528,8.5699e-05,9.3e-06,0.0,0 STARLINK-6275,1 56772U 23078F   24130.72770783  .00000930  00000-0  85699-4 0  9991,2 56772  70.0004 251.1224 0002875 269.5302  90.5528 14.98334890 51987,6950.178,96.107,574.041,570.045,0.0
56772.0,STARLINK-6275,PAYLOAD,2024-05-10 01:28:34,14.98337096,0.0003165,69.9998,250.2804,278.5866,81.4935,-3.7663e-05,-5.42e-06,0.0,0 STARLINK-6275,1 56772U 23078F   24131.06150872 -.00000542  00000-0 -37663-4 0  9999,2 56772  69.9998 250.2804 0003165 278.5866  81.4935 14.98337096 52295,6950.171,96.107,574.236,569.836,0.0
56772.0,STARLINK-6275,PAYLOAD,2024-05-10 12:41:31,14.98325945,0.0002496,70.0012,249.1013,271.2458,88.8416,-4.2264e-05,-5.97e-06,0.0,0 STARLINK-6275,1 56772U 23078F   24131.52883822 -.00000597  00000-0 -42264-4 0  9991,2 56772  70.0012 249.1013 0002496 271.2458  88.8416 14.98325945 52360,6950.205,96.107,573.805,570.336,0.0
56772.0,STARLINK-6275,PAYLOAD,2024-05-10 14:17:39,14.98326707,0.0002731,69.9996,248.9307,264.8959,95.1888,-3.0332e-05,-4.55e-06,0.0,0 STARLINK-6275,1 56772U 23078F   24131.59559685 -.00000455  00000-0 -30332-4 0  9991,2 56772  69.9996 248.9307 0002731 264.8959  95.1888 14.98326707 52111,6950.203,96.107,573.966,570.17,0.0
56772.0,STARLINK-6275,PAYLOAD,2024-05-10 17:29:55,14.98328495,0.0002921,69.9999,248.5969,270.3298,89.7526,-3.6383e-05,-5.27e-06,0.0,0 STARLINK-6275,1 56772U 23078F   24131.72911635 -.00000527  00000-0 -36383-4 0  9995,2 56772  69.9999 248.5969 0002921 270.3298  89.7526 14.98328495 52139,6950.198,96.107,574.093,570.032,0.0
56772.0,STARLINK-6275,PAYLOAD,2024-05-11 11:07:18,14.98396208,0.000239,70.0003,246.7452,251.1646,108.9254,0.0006983,8.263e-05,0.0,0 STARLINK-6275,1 56772U 23078F   24132.46340949  .00008263  00000-0  69830-3 0  9996,2 56772  70.0003 246.7452 0002390 251.1646 108.9254 14.98396208 52509,6949.988,96.103,573.514,570.192,0.0
56772.0,STARLINK-6275,PAYLOAD,2024-05-11 17:31:56,14.98312525,0.0002592,70.0,246.0721,282.3556,77.7312,-0.00031748,-3.877e-05,0.0,0 STARLINK-6275,1 56772U 23078F   24132.73051754 -.00003877  00000-0 -31748-3 0  9994,2 56772  70.0000 246.0721 0002592 282.3556  77.7312 14.98312525 52540,6950.247,96.108,573.913,570.31,0.0
56772.0,STARLINK-6275,PAYLOAD,2024-05-12 12:45:41,14.98232736,0.0002816,70.0001,244.0506,267.3144,92.7693,-0.00086974,-0.00010429,0.0,0 STARLINK-6275,1 56772U 23078F   24133.53173211 -.00010429  00000-0 -86974-3 0  9998,2 56772  70.0001 244.0506 0002816 267.3144  92.7693 14.98232736 52662,6950.494,96.113,574.316,570.401,0.0
56772.0,STARLINK-6275,PAYLOAD,2024-05-12 14:21:49,14.98236202,0.0002917,70.0,243.884,265.7611,94.3215,-0.00087504,-0.00010493,0.0,0 STARLINK-6275,1 56772U 23078F   24133.59849365 -.00010493  00000-0 -87504-3 0  9995,2 56772  70.0000 243.8840 0002917 265.7611  94.3215 14.98236202 52415,6950.483,96.113,574.375,570.321,0.0
56772.0,STARLINK-6275,PAYLOAD,2024-05-12 17:34:06,14.98234795,0.0002931,70.0001,243.5473,265.2085,94.874,-0.00086134,-0.0001033,0.0,0 STARLINK-6275,1 56772U 23078F   24133.73202172 -.00010330  00000-0 -86134-3 0  9998,2 56772  70.0001 243.5473 0002931 265.2085  94.8740 14.98234795 52436,6950.487,96.113,574.39,570.315,0.0
56772.0,STARLINK-6275,PAYLOAD,2024-05-12 23:58:36,14.98282974,0.0003109,70.0002,242.873,270.1691,89.9112,-0.0003319,-4.046e-05,0.0,0 STARLINK-6275,1 56772U 23078F   24133.99902909 -.00004046  00000-0 -33190-3 0  9992,2 56772  70.0002 242.8730 0003109 270.1691  89.9112 14.98282974 52734,6950.338,96.11,574.364,570.042,0.0
56772.0,STARLINK-6275,PAYLOAD,2024-05-13 11:11:28,14.98360319,0.0002773,70.0003,241.6958,269.4035,90.6806,-0.00026631,-3.272e-05,0.0,0 STARLINK-6275,1 56772U 23078F   24134.46630503 -.00003272  00000-0 -26631-3 0  9995,2 56772  70.0003 241.6958 0002773 269.4035  90.6806 14.98360319 52800,6950.099,96.105,573.891,570.037,0.0
56772.0,STARLINK-6275,PAYLOAD,2024-05-13 17:36:00,14.98361236,0.0002515,70.0004,241.0224,265.8912,94.196,-0.00020364,-2.524e-05,0.0,0 STARLINK-6275,1 56772U 23078F   24134.73334069 -.00002524  00000-0 -20364-3 0  9999,2 56772  70.0004 241.0224 0002515 265.8912  94.1960 14.98361236 52583,6950.096,96.105,573.709,570.213,0.0
56772.0,STARLINK-6275,PAYLOAD,2024-05-14 12:49:37,14.98316366,0.0002849,70.0005,239.0032,267.8035,92.2798,0.0012298,0.00014606,0.0,0 STARLINK-6275,1 56772U 23078F   24135.53446065  .00014606  00000-0  12298-2 0  9996,2 56772  70.0005 239.0032 0002849 267.8035  92.2798 14.98316366 52960,6950.235,96.108,574.08,570.12,0.0
56772.0,STARLINK-6275,PAYLOAD,2024-05-15 12:51:36,14.98372898,0.0002601,70.0016,236.4803,272.0926,87.9935,0.00013664,1.54e-05,0.0,0 STARLINK-6275,1 56772U 23078F   24136.53584208  .00001540  00000-0  13664-3 0  9991,2 56772  70.0016 236.4803 0002601 272.0926  87.9935 14.98372898 53116,6950.06,96.104,573.733,570.118,0.0
56772.0,STARLINK-6275,PAYLOAD,2024-05-15 14:27:44,14.98376192,0.0002534,70.0008,236.3101,267.2656,92.8213,0.00013234,1.488e-05,0.0,0 STARLINK-6275,1 56772U 23078F   24136.60259807  .00001488  00000-0  13234-3 0  9997,2 56772  70.0008 236.3101 0002534 267.2656  92.8213 14.98376192 52864,6950.05,96.104,573.676,570.154,0.0
56772.0,STARLINK-6275,PAYLOAD,2024-05-15 16:03:51,14.98382539,0.0003052,69.9999,236.141,270.2258,89.8552,0.00016454,1.873e-05,0.0,0 STARLINK-6275,1 56772U 23078F   24136.66935015  .00001873  00000-0  16454-3 0  9990,2 56772  69.9999 236.1410 0003052 270.2258  89.8552 14.98382539 53134,6950.03,96.104,574.017,569.774,0.0
56772.0,STARLINK-6275,PAYLOAD,2024-05-16 00:04:31,14.98377858,0.0002872,70.0026,235.2982,269.1909,90.8921,-6.6726e-05,-8.9e-06,0.0,0 STARLINK-6275,1 56772U 23078F   24137.00314810 -.00000890  00000-0 -66726-4 0  9991,2 56772  70.0026 235.2982 0002872 269.1909  90.8921 14.98377858 53186,6950.045,96.104,573.906,569.914,0.0
56772.0,STARLINK-6275,PAYLOAD,2024-05-16 12:53:36,14.98364513,0.0002805,69.9992,233.951,268.3459,91.7379,-0.00029453,-3.609e-05,0.0,0 STARLINK-6275,1 56772U 23078F   24137.53722976 -.00003609  00000-0 -29453-3 0  9991,2 56772  69.9992 233.9510 0002805 268.3459  91.7379 14.98364513 53264,6950.086,96.105,573.901,570.002,0.0
56772.0,STARLINK-6275,PAYLOAD,2024-05-16 16:05:52,14.98365376,0.0002745,69.9992,233.6142,268.4673,91.6172,-0.00027406,-3.364e-05,0.0,0 STARLINK-6275,1 56772U 23078F   24137.67074552 -.00003364  00000-0 -27406-3 0  9990,2 56772  69.9992 233.6142 0002745 268.4673  91.6172 14.98365376 53026,6950.083,96.105,573.856,570.041,0.0
56772.0,STARLINK-6275,PAYLOAD,2024-05-17 00:06:32,14.98344366,0.0002897,69.9992,232.7701,267.2699,92.8129,-6.3788e-05,-8.54e-06,0.0,0 STARLINK-6275,1 56772U 23078F   24138.00454343 -.00000854  00000-0 -63788-4 0  9993,2 56772  69.9992 232.7701 0002897 267.2699  92.8129 14.98344366 53335,6950.148,96.106,574.027,570.0,0.0
56772.0,STARLINK-6275,PAYLOAD,2024-05-17 12:55:36,14.98347017,0.0002493,70.0007,231.4269,270.1252,89.9621,-0.00021636,-2.675e-05,0.0,0 STARLINK-6275,1 56772U 23078F   24138.53862163 -.00002675  00000-0 -21636-3 0  9992,2 56772  70.0007 231.4269 0002493 270.1252  89.9621 14.98347017 53150,6950.14,96.106,573.738,570.273,0.0
56772.0,STARLINK-6275,PAYLOAD,2024-05-18 12:57:37,14.98336595,0.0003086,69.9984,228.9019,272.9811,87.0994,-5.7588e-05,-7.8e-06,0.0,0 STARLINK-6275,1 56772U 23078F   24139.54002080 -.00000780  00000-0 -57588-4 0  9999,2 56772  69.9984 228.9019 0003086 272.9811  87.0994 14.98336595 53561,6950.172,96.107,574.182,569.893,0.0
56772.0,STARLINK-6275,PAYLOAD,2024-05-18 14:33:45,14.98337561,0.0002593,69.9993,228.733,270.5065,89.5797,-3.443e-06,-1.34e-06,0.0,0 STARLINK-6275,1 56772U 23078F   24139.60677870 -.00000134  00000-0 -34430-5 0  9996,2 56772  69.9993 228.7330 0002593 270.5065  89.5797 14.98337561 53317,6950.17,96.107,573.837,570.232,0.0
56772.0,STARLINK-6275,PAYLOAD,2024-05-18 22:34:26,14.98336828,0.000212,70.0026,227.8912,275.7583,84.3334,-0.00023619,-2.91e-05,0.0,0 STARLINK-6275,1 56772U 23078F   24139.94058378 -.00002910  00000-0 -23619-3 0  9998,2 56772  70.0026 227.8912 0002120 275.7583  84.3334 14.98336828 53361,6950.172,96.107,573.51,570.563,0.0
56772.0,STARLINK-6275,PAYLOAD,2024-05-19 12:59:40,14.98305916,0.0002858,70.0006,226.3781,276.8493,83.2341,-8.7997e-05,-1.142e-05,0.0,0 STARLINK-6275,1 56772U 23078F   24140.54144609 -.00001142  00000-0 -87997-4 0  9995,2 56772  70.0006 226.3781 0002858 276.8493  83.2341 14.98305916 53457,6950.267,96.109,574.119,570.146,0.0
56772.0,STARLINK-6275,PAYLOAD,2024-05-19 16:11:56,14.98309404,0.0002719,70.0012,226.0437,266.1937,93.8911,-4.422e-05,-6.2e-06,0.0,0 STARLINK-6275,1 56772U 23078F   24140.67496393 -.00000620  00000-0 -44220-4 0  9991,2 56772  70.0012 226.0437 0002719 266.1937  93.8911 14.98309404 53737,6950.257,96.108,574.011,570.232,0.0
56772.0,STARLINK-6275,PAYLOAD,2024-05-20 05:01:00,14.98329463,0.0003817,69.9984,224.6909,274.7965,85.2758,5.6303e-05,5.79e-06,0.0,0 STARLINK-6275,1 56772U 23078F   24141.20902876  .00000579  00000-0  56303-4 0  9995,2 56772  69.9984 224.6909 0003817 274.7965  85.2758 14.98329463 53816,6950.195,96.107,574.712,569.407,0.0
56772.0,STARLINK-6275,PAYLOAD,2024-05-20 13:01:39,14.9834146,0.0002359,70.002,223.8556,247.7752,112.3157,0.00024262,2.804e-05,0.0,0 STARLINK-6275,1 56772U 23078F   24141.54281546  .00002804  00000-0  24262-3 0  9997,2 56772  70.0020 223.8556 0002359 247.7752 112.3157 14.98341460 53864,6950.157,96.106,573.662,570.383,0.0
